{"type": "FeatureCollection", "features": [{"type": "Feature", "geometry": {"type": "Point", "coordinates": [16.81560973, 48.79774133]}, "properties": {"id": "a2b52e38-0fca-4ffc-b9fb-bc9d0fd07187", "names": {"primary": "Apartm\u00e1ny U Jakuba", "common": null, "rules": null}, "basic_category": "hotel"}}, {"type": "Feature", "geometry": {"type": "Point", "coordinates": [16.8147468, 48.79783001]}, "properties": {"id": "d652f6b1-0543-467e-b0be-ec36aefeaf4d", "names": {"primary": "Apartm\u00e1ny PODZ\u00c1M\u010c\u00cd", "common": null, "rules": null}, "basic_category": "hotel"}}, {"type": "Feature", "geometry": {"type": "Point", "coordinates": [16.81249736, 48.79814131]}, "properties": {"id": "85158b64-faab-4fa2-b99c-0247fdc6c4e0", "names": {"primary": "Ing. Radka \u0160oupalov\u00e1", "common": null, "rules": null}, "basic_category": "financial_service"}}, {"type": "Feature", "geometry": {"type": "Point", "coordinates": [16.81337892, 48.79806993]}, "properties": {"id": "1c7e2c85-0a11-4b7f-a960-94585ca7ce8d", "names": {"primary": "Penzion Harmonie", "common": null, "rules": null}, "basic_category": "hotel"}}, {"type": "Feature", "geometry": {"type": "Point", "coordinates": [16.81331, 48.79789]}, "properties": {"id": "e2a0832f-09cf-47ef-a330-7f9b939fb107", "names": {"primary": "KOVO L.A.", "common": null, "rules": null}, "basic_category": null}}, {"type": "Feature", "geometry": {"type": "Point", "coordinates": [16.81308, 48.796298]}, "properties": {"id": "951d7b2d-1427-4f76-85ce-c38333641503", "names": {"primary": "L\u00e1ze\u0148sk\u00e1 kolon\u00e1da a amfite\u00e1tr Lednice", "common": null, "rules": null}, "basic_category": "music_venue"}}, {"type": "Feature", "geometry": {"type": "Point", "coordinates": [16.81360051, 48.79590245]}, "properties": {"id": "5de6b952-9ebe-4816-ad9f-7b35649f3a5c", "names": {"primary": "NaKolonad\u011b", "common": null, "rules": null}, "basic_category": "bar"}}, {"type": "Feature", "geometry": {"type": "Point", "coordinates": [16.81360051, 48.79590245]}, "properties": {"id": "fee25e64-e174-47ca-8e02-373d3ea4564b", "names": {"primary": "Letn\u00ed bar na kolon\u00e1d\u011b", "common": null, "rules": null}, "basic_category": "bar"}}, {"type": "Feature", "geometry": {"type": "Point", "coordinates": [16.81260006, 48.7949471]}, "properties": {"id": "46ec977a-b8f7-4eed-81b2-b25ff376e93d", "names": {"primary": "Adventure Golf Lednice", "common": null, "rules": null}, "basic_category": "sport_or_fitness_facility"}}, {"type": "Feature", "geometry": {"type": "Point", "coordinates": [16.818608, 48.793032]}, "properties": {"id": "c558f5d9-9dd8-4553-a040-ddf5f7fbb38a", "names": {"primary": "Vyhl\u00eddkov\u00e1 v\u011b\u017e Lednick\u00e1 kolon\u00e1da", "common": null, "rules": null}, "basic_category": "historic_site"}}, {"type": "Feature", "geometry": {"type": "Point", "coordinates": [16.82780042, 48.78867568]}, "properties": {"id": "7166ce65-d18c-4ef5-9db9-c98b67e9742b", "names": {"primary": "Chati\u010dka za Apollem", "common": null, "rules": null}, "basic_category": "lodging"}}, {"type": "Feature", "geometry": {"type": "Point", "coordinates": [16.8260683, 48.7857326]}, "properties": {"id": "d94b250b-4fec-4670-ac0d-54b1d3e76d0c", "names": {"primary": "Atc Apollo Lednice", "common": null, "rules": null}, "basic_category": "rv_park"}}, {"type": "Feature", "geometry": {"type": "Point", "coordinates": [16.8266697, 48.7854805]}, "properties": {"id": "c120cb99-bdd4-4179-b1f1-fa9e95d865a5", "names": {"primary": "Bistro Apollo", "common": null, "rules": null}, "basic_category": "winery"}}, {"type": "Feature", "geometry": {"type": "Point", "coordinates": [16.82657354, 48.78558562]}, "properties": {"id": "08f7ce6d-c076-4424-8e87-f54dd4237ea6", "names": {"primary": "os Salma", "common": null, "rules": null}, "basic_category": "farm"}}, {"type": "Feature", "geometry": {"type": "Point", "coordinates": [16.82656302, 48.78558729]}, "properties": {"id": "e49d0257-43d4-4004-a98b-e5ff2decea2f", "names": {"primary": "Autokemp Apollo", "common": null, "rules": null}, "basic_category": "campground"}}, {"type": "Feature", "geometry": {"type": "Point", "coordinates": [16.79571763, 48.78430842]}, "properties": {"id": "f91409bd-4fb0-4365-9f1f-f0edcc92afc2", "names": {"primary": "Rybni\u010dn\u00ed z\u00e1me\u010dek", "common": null, "rules": null}, "basic_category": "historic_site"}}, {"type": "Feature", "geometry": {"type": "Point", "coordinates": [16.79716758728, 48.788974313312]}, "properties": {"id": "eb85dec5-b858-4b30-bb68-cdfd8257f8f4", "names": {"primary": "Studentsk\u00fd klub Ovocko - Lednice", "common": null, "rules": null}, "basic_category": "dance_club"}}, {"type": "Feature", "geometry": {"type": "Point", "coordinates": [16.81067725, 48.79314466]}, "properties": {"id": "1856b177-cc24-47b9-995c-5c683fbbe29c", "names": {"primary": "Shiny Car Detailing", "common": null, "rules": null}, "basic_category": "automotive_service"}}, {"type": "Feature", "geometry": {"type": "Point", "coordinates": [16.80824366, 48.79342786]}, "properties": {"id": "68f7ed6f-f88e-4ad6-9690-eee487552aa6", "names": {"primary": "TRANSROLL", "common": null, "rules": null}, "basic_category": "technical_service"}}, {"type": "Feature", "geometry": {"type": "Point", "coordinates": [16.80306011, 48.79599524]}, "properties": {"id": "060894a7-2914-44bb-8761-f0795314221e", "names": {"primary": "M\u00edstn\u00ed knihovna", "common": null, "rules": null}, "basic_category": "library"}}, {"type": "Feature", "geometry": {"type": "Point", "coordinates": [16.80760747, 48.79573926]}, "properties": {"id": "75244e65-cd2c-412e-8aaf-928b33d78f75", "names": {"primary": "O\u00e1za", "common": null, "rules": null}, "basic_category": "casual_eatery"}}, {"type": "Feature", "geometry": {"type": "Point", "coordinates": [16.80731852, 48.79433444]}, "properties": {"id": "b9c75e11-fb0b-4a82-b35a-b52888786568", "names": {"primary": "D\u0159evostavby Klom\u00ednek", "common": null, "rules": null}, "basic_category": "building_or_construction_service"}}, {"type": "Feature", "geometry": {"type": "Point", "coordinates": [16.80556377, 48.79445504]}, "properties": {"id": "6f8d48a3-b420-4fe5-ad75-5bf18aaddb02", "names": {"primary": "VELLAR s.r.o.", "common": null, "rules": null}, "basic_category": "hardware_home_and_garden_store"}}, {"type": "Feature", "geometry": {"type": "Point", "coordinates": [16.80627527, 48.79411681]}, "properties": {"id": "3d651ebf-03a6-494e-a024-747f5950507d", "names": {"primary": "Apartm\u00e1ny Kord", "common": null, "rules": null}, "basic_category": "hotel"}}, {"type": "Feature", "geometry": {"type": "Point", "coordinates": [16.80884839, 48.79427026]}, "properties": {"id": "65a1afbb-e9f8-4c69-aa6a-6670100b15de", "names": {"primary": "penzion Marcela", "common": null, "rules": null}, "basic_category": "hotel"}}, {"type": "Feature", "geometry": {"type": "Point", "coordinates": [16.809813420565, 48.793887433656]}, "properties": {"id": "e8a9aed2-f95b-43ff-acdb-a96e81b3aff4", "names": {"primary": "ZBSteel", "common": null, "rules": null}, "basic_category": "automotive_service"}}, {"type": "Feature", "geometry": {"type": "Point", "coordinates": [16.81129, 48.79367]}, "properties": {"id": "95edb1ad-0766-498a-8b5b-40a14b0c7ba0", "names": {"primary": "Kotko", "common": null, "rules": null}, "basic_category": null}}, {"type": "Feature", "geometry": {"type": "Point", "coordinates": [16.81224671, 48.79369162]}, "properties": {"id": "8d578b61-d8c8-43cb-bb2c-40622009b26b", "names": {"primary": "Apartm\u00e1ny Ynna", "common": null, "rules": null}, "basic_category": "hotel"}}, {"type": "Feature", "geometry": {"type": "Point", "coordinates": [16.81206494, 48.79386308]}, "properties": {"id": "6c7a139e-9a99-4803-81a1-87f002879818", "names": {"primary": "Apartm\u00e1n NIKI Apollon Resort Lednice", "common": null, "rules": null}, "basic_category": "hotel"}}, {"type": "Feature", "geometry": {"type": "Point", "coordinates": [16.81135112, 48.7942568]}, "properties": {"id": "33f89489-de18-426b-a544-6ff542cd9da6", "names": {"primary": "Apartm\u00e1ny Rose Lednice", "common": null, "rules": null}, "basic_category": "private_lodging"}}, {"type": "Feature", "geometry": {"type": "Point", "coordinates": [16.81015096, 48.79489685]}, "properties": {"id": "84e26934-0eba-4751-8294-e92bae0211ba", "names": {"primary": "Bc. Jaroslav Svora", "common": null, "rules": null}, "basic_category": "printing_service"}}, {"type": "Feature", "geometry": {"type": "Point", "coordinates": [16.81092504, 48.79557031]}, "properties": {"id": "17dff4ce-1a03-47a6-bda2-8825a70d974a", "names": {"primary": "Spa Resort Lednice", "common": null, "rules": null}, "basic_category": "hotel"}}, {"type": "Feature", "geometry": {"type": "Point", "coordinates": [16.8101998, 48.79588306]}, "properties": {"id": "426a421c-7804-4b58-a2b7-5e5d5caaa50d", "names": {"primary": "L\u00e1zn\u011b Lednice", "common": null, "rules": null}, "basic_category": "wellness_service"}}, {"type": "Feature", "geometry": {"type": "Point", "coordinates": [16.80792, 48.79553]}, "properties": {"id": "eb4d4a39-7a58-408b-a77b-9fcb72dcc539", "names": {"primary": "Lednice Apartment", "common": null, "rules": null}, "basic_category": "lodging"}}, {"type": "Feature", "geometry": {"type": "Point", "coordinates": [16.80773861, 48.79642488]}, "properties": {"id": "8d5391a2-a98b-47a1-a377-c685c910e4a9", "names": {"primary": "Slune\u010dn\u00ed villa Terezka", "common": null, "rules": null}, "basic_category": "professional_service"}}, {"type": "Feature", "geometry": {"type": "Point", "coordinates": [16.811800162595, 48.796880956711]}, "properties": {"id": "497bb889-9a94-45f0-8b09-02ea004be5f6", "names": {"primary": "L\u00e1ze\u0148sk\u00e1 kolon\u00e1da Lednice", "common": null, "rules": null}, "basic_category": "public_plaza"}}, {"type": "Feature", "geometry": {"type": "Point", "coordinates": [16.81200862, 48.79752758]}, "properties": {"id": "cc0d7f5a-4da4-4d26-a4ea-cfa9daf8f43e", "names": {"primary": "Penzion Poh\u00e1dka Lednice", "common": null, "rules": null}, "basic_category": "hotel"}}, {"type": "Feature", "geometry": {"type": "Point", "coordinates": [16.81139192, 48.79761862]}, "properties": {"id": "51b61684-5fdd-41d5-aa48-abd3a16cf04c", "names": {"primary": "Apartm\u00e1nov\u00fd d\u016fm na kolon\u00e1d\u011b", "common": null, "rules": null}, "basic_category": "hotel"}}, {"type": "Feature", "geometry": {"type": "Point", "coordinates": [16.81229392, 48.79817545]}, "properties": {"id": "b3da047b-ad05-44c0-b132-8496ac8998b8", "names": {"primary": "Apartm\u00e1ny Marco Polo", "common": null, "rules": null}, "basic_category": "hotel"}}, {"type": "Feature", "geometry": {"type": "Point", "coordinates": [16.80942625, 48.79810081]}, "properties": {"id": "22ae7fc1-8630-4130-8f4e-a2b4be364d9d", "names": {"primary": "Vila Veronika", "common": null, "rules": null}, "basic_category": "hotel"}}, {"type": "Feature", "geometry": {"type": "Point", "coordinates": [16.80836268, 48.79818984]}, "properties": {"id": "02b837d5-1319-4716-b94e-f1514ab289d2", "names": {"primary": "TJ Moravan Lednice", "common": null, "rules": null}, "basic_category": "sport_league"}}, {"type": "Feature", "geometry": {"type": "Point", "coordinates": [16.80657, 48.79779]}, "properties": {"id": "27f52324-6ee0-431f-ab05-924e2f040c91", "names": {"primary": "Zeus gym Lednice", "common": null, "rules": null}, "basic_category": "gym"}}, {"type": "Feature", "geometry": {"type": "Point", "coordinates": [16.806564, 48.797783]}, "properties": {"id": "b56e154e-04a8-4350-8076-6fc9606cec79", "names": {"primary": "Lednice AlzaBox B\u0159eclavsk\u00e1", "common": null, "rules": []}, "basic_category": "storage_facility"}}, {"type": "Feature", "geometry": {"type": "Point", "coordinates": [16.807542, 48.797041]}, "properties": {"id": "dc727bf7-77fe-4d8c-8e57-bc358dbfd448", "names": {"primary": "EUROOIL Station", "common": null, "rules": []}, "basic_category": "gas_station"}}, {"type": "Feature", "geometry": {"type": "Point", "coordinates": [16.80568636, 48.79606919]}, "properties": {"id": "59f6ec3d-349c-4684-a19d-aec600ec7133", "names": {"primary": "Vinn\u00fd skl\u00edpek U Hole\u0161\u0148\u00e1k\u016f", "common": null, "rules": null}, "basic_category": "bar"}}, {"type": "Feature", "geometry": {"type": "Point", "coordinates": [16.80559076, 48.79612487]}, "properties": {"id": "bb91a9d7-4da3-494c-a5f7-c32b9c364071", "names": {"primary": "Penzion Slune\u010dn\u00ed D\u016fm Lednice", "common": null, "rules": null}, "basic_category": "bed_and_breakfast"}}, {"type": "Feature", "geometry": {"type": "Point", "coordinates": [16.8059238, 48.79669563]}, "properties": {"id": "d6b894ea-ff58-478b-badc-d1987beb20e9", "names": {"primary": "Penzion U Bohu\u0161a", "common": null, "rules": null}, "basic_category": "hotel"}}, {"type": "Feature", "geometry": {"type": "Point", "coordinates": [16.805705, 48.797224]}, "properties": {"id": "f6df47a6-0bcf-450a-9dd4-43bd08cd6ace", "names": {"primary": "Z\u00e1kladn\u00ed \u0161kola Lednice", "common": null, "rules": null}, "basic_category": "elementary_school"}}, {"type": "Feature", "geometry": {"type": "Point", "coordinates": [16.80532552, 48.79608084]}, "properties": {"id": "6bbb0ce3-ba84-49c2-a940-0cf19512b275", "names": {"primary": "Penzion Ve\u010derka", "common": null, "rules": null}, "basic_category": "hotel"}}, {"type": "Feature", "geometry": {"type": "Point", "coordinates": [16.80377257, 48.7968396]}, "properties": {"id": "279ec8c1-86dd-4e73-8c5e-8526b73de162", "names": {"primary": "Penzion Harmony", "common": null, "rules": null}, "basic_category": "lodging"}}, {"type": "Feature", "geometry": {"type": "Point", "coordinates": [16.80482092, 48.79777805]}, "properties": {"id": "63ee43c7-b108-4e27-b8e5-1b21355ebfda", "names": {"primary": "Hosp\u016fdka U Korunky", "common": null, "rules": null}, "basic_category": "restaurant"}}, {"type": "Feature", "geometry": {"type": "Point", "coordinates": [16.80173228, 48.79783193]}, "properties": {"id": "9fa3975e-4701-4490-b7f0-4bf71d208a3a", "names": {"primary": "CoVpoint", "common": null, "rules": null}, "basic_category": "media_service"}}, {"type": "Feature", "geometry": {"type": "Point", "coordinates": [16.800860065215552, 48.79788745740344]}, "properties": {"id": "2c6354bb-37af-4348-b186-861e43cb2c20", "names": {"primary": "Butler Accommodation Lednice", "common": null, "rules": null}, "basic_category": "hotel"}}, {"type": "Feature", "geometry": {"type": "Point", "coordinates": [16.801618, 48.79791]}, "properties": {"id": "31131add-5b34-4367-9676-2b75e9b101c5", "names": {"primary": "Solandria Lednice", "common": null, "rules": null}, "basic_category": "hotel"}}, {"type": "Feature", "geometry": {"type": "Point", "coordinates": [16.80049097, 48.79840152]}, "properties": {"id": "d16c5fc3-90b9-47d3-8941-f347fb0c346c", "names": {"primary": "Torture Museum", "common": null, "rules": null}, "basic_category": "museum"}}, {"type": "Feature", "geometry": {"type": "Point", "coordinates": [16.80021014, 48.79826425]}, "properties": {"id": "6cfcb861-1c61-49a9-8ec4-8abf7af8e45c", "names": {"primary": "Vina\u0159stv\u00ed EISGRUB Lednice", "common": null, "rules": null}, "basic_category": "winery"}}, {"type": "Feature", "geometry": {"type": "Point", "coordinates": [16.799334, 48.796517]}, "properties": {"id": "acf3f0d2-3aa7-46e3-a5fa-209e3d9057fb", "names": {"primary": "ZF MENDELU, \u00dastav Vinohradnictv\u00ed a vina\u0159stv\u00ed", "common": null, "rules": null}, "basic_category": "college_university"}}, {"type": "Feature", "geometry": {"type": "Point", "coordinates": [16.799569129071, 48.796182058413]}, "properties": {"id": "62d2e45a-0d92-4878-8eb7-865d0de5485f", "names": {"primary": "\u00dastav zahradn\u00ed a krajin\u00e1\u0159sk\u00e9 architektury", "common": null, "rules": null}, "basic_category": "college_university"}}, {"type": "Feature", "geometry": {"type": "Point", "coordinates": [16.80282365, 48.79579975]}, "properties": {"id": "deda6396-1392-436f-bf44-6aa5b46acb07", "names": {"primary": "M\u0160 Lednice", "common": null, "rules": null}, "basic_category": "preschool"}}, {"type": "Feature", "geometry": {"type": "Point", "coordinates": [16.802524, 48.794445]}, "properties": {"id": "d3081d56-de33-4e18-add5-25b9bf564913", "names": {"primary": "Ob\u010dansk\u00e9 sdru\u017een\u00ed V Rytmu", "common": null, "rules": null}, "basic_category": "professional_service"}}, {"type": "Feature", "geometry": {"type": "Point", "coordinates": [16.801736188656, 48.794424676071]}, "properties": {"id": "923493d8-b885-4111-9099-cb47c9425fc3", "names": {"primary": "\u017delezni\u010dn\u00ed stanice Lednice", "common": null, "rules": null}, "basic_category": "train_station"}}, {"type": "Feature", "geometry": {"type": "Point", "coordinates": [16.80133632, 48.79453979]}, "properties": {"id": "56d3acba-0ca1-4a5d-a999-d3c582acb30e", "names": {"primary": "Penzion Myslivna", "common": null, "rules": null}, "basic_category": "restaurant"}}, {"type": "Feature", "geometry": {"type": "Point", "coordinates": [16.80187301, 48.79460897]}, "properties": {"id": "3b4479d2-4860-4c07-9a02-fb554952afd5", "names": {"primary": "Garden Atelier Lednice", "common": null, "rules": null}, "basic_category": "lodging"}}, {"type": "Feature", "geometry": {"type": "Point", "coordinates": [16.800489, 48.795278]}, "properties": {"id": "57f651c1-ae23-4a02-8009-0f4c7e4a7d0a", "names": {"primary": "Apartm\u00e1ny Vila Al\u017eb\u011bta - bezpe\u010dn\u00e1 investice v LVA", "common": null, "rules": null}, "basic_category": "hotel"}}, {"type": "Feature", "geometry": {"type": "Point", "coordinates": [16.79928591, 48.79578392]}, "properties": {"id": "3af44780-8700-4c36-b8c3-cd3200bb07c7", "names": {"primary": "Kafe z V\u00fd\u0161ky", "common": null, "rules": null}, "basic_category": "coffee_shop"}}, {"type": "Feature", "geometry": {"type": "Point", "coordinates": [16.79876, 48.79549]}, "properties": {"id": "4b592ab2-f56b-44b5-95d8-b07b310bf38e", "names": {"primary": "\u00dastav pl\u00e1nov\u00e1n\u00ed krajiny / Dept. of Landscape Planning", "common": null, "rules": null}, "basic_category": "college_university"}}, {"type": "Feature", "geometry": {"type": "Point", "coordinates": [16.79876, 48.79549]}, "properties": {"id": "758673e4-fe25-405e-bba3-e0b6fc1ab0b0", "names": {"primary": "Zahradnick\u00e1 fakulta MENDELU", "common": null, "rules": null}, "basic_category": "college_university"}}, {"type": "Feature", "geometry": {"type": "Point", "coordinates": [16.79876, 48.79549]}, "properties": {"id": "9dfb132c-2c8d-4a0d-a45f-cc532dd0ba97", "names": {"primary": "Ledov\u00e1 \u010dajovna", "common": null, "rules": null}, "basic_category": "cafe"}}, {"type": "Feature", "geometry": {"type": "Point", "coordinates": [16.79876, 48.79549]}, "properties": {"id": "ec43e31e-90a7-4ef4-ac7c-bf66ca6fa229", "names": {"primary": "\u00dastav biotechniky zelen\u011b Zahradnick\u00e9 fakulty Mendelu", "common": null, "rules": null}, "basic_category": "place_of_learning"}}, {"type": "Feature", "geometry": {"type": "Point", "coordinates": [16.79854554, 48.79586495]}, "properties": {"id": "15ea46ed-e9c9-4952-bbab-fff0b600d493", "names": {"primary": "Akademick\u00e1 zahrada ZF MENDELU", "common": null, "rules": null}, "basic_category": "garden"}}, {"type": "Feature", "geometry": {"type": "Point", "coordinates": [16.79807626, 48.79629354]}, "properties": {"id": "7a015d17-0f10-42be-bdd4-fe05ed15e873", "names": {"primary": "Koleje Petra Bezru\u010de", "common": null, "rules": null}, "basic_category": "lodging"}}, {"type": "Feature", "geometry": {"type": "Point", "coordinates": [16.797053, 48.797414]}, "properties": {"id": "3b85660d-63ec-4857-b126-ce2419fbad3d", "names": {"primary": "Living 2005", "common": null, "rules": null}, "basic_category": "restaurant"}}, {"type": "Feature", "geometry": {"type": "Point", "coordinates": [16.79733328, 48.79755332]}, "properties": {"id": "b326c317-cd3b-4577-85fe-55e49271c54d", "names": {"primary": "Ubytov\u00e1n\u00ed Lednice", "common": null, "rules": null}, "basic_category": "hotel"}}, {"type": "Feature", "geometry": {"type": "Point", "coordinates": [16.79791234, 48.79739908]}, "properties": {"id": "a6c3a729-c9e1-4c8f-b0ab-02205d3197ac", "names": {"primary": "ProDoma", "common": null, "rules": null}, "basic_category": "sporting_goods_store"}}, {"type": "Feature", "geometry": {"type": "Point", "coordinates": [16.79706789, 48.79820963]}, "properties": {"id": "035d6379-f0d1-4734-b288-9d7c3f16356d", "names": {"primary": "Apartm\u00e1ny Na Zahrad\u00e1ch", "common": null, "rules": null}, "basic_category": "private_lodging"}}, {"type": "Feature", "geometry": {"type": "Point", "coordinates": [16.79055999, 48.79804545]}, "properties": {"id": "88f3331d-77d7-4a6d-80f5-9d61f113e760", "names": {"primary": "Ubytov\u00e1n\u00ed Elements Lednice", "common": null, "rules": null}, "basic_category": "lodging"}}, {"type": "Feature", "geometry": {"type": "Point", "coordinates": [16.78604743, 48.79969348]}, "properties": {"id": "d7d9ed15-5aa7-4adf-96c5-b1aa9c5291b8", "names": {"primary": "Mor\u00e1vkovo zahradn\u00ed centrum", "common": null, "rules": null}, "basic_category": "hardware_home_and_garden_store"}}, {"type": "Feature", "geometry": {"type": "Point", "coordinates": [16.7851394, 48.80035]}, "properties": {"id": "ad8d74c6-bebe-46e7-a2cf-e9cc35e23a55", "names": {"primary": "DHL Service Point (\u010cS OMV Lednice)", "common": null, "rules": null}, "basic_category": "shipping_or_delivery_service"}}, {"type": "Feature", "geometry": {"type": "Point", "coordinates": [16.78486542, 48.80025642]}, "properties": {"id": "44620cd6-2331-45b3-977a-1d82c913b76c", "names": {"primary": "AUTO\u00a0WOZAR", "common": null, "rules": []}, "basic_category": "automotive_service"}}, {"type": "Feature", "geometry": {"type": "Point", "coordinates": [16.78501, 48.80015]}, "properties": {"id": "f237f9ab-99a8-47bc-ba73-767e9ccfa166", "names": {"primary": "OMV", "common": null, "rules": null}, "basic_category": "gas_station"}}, {"type": "Feature", "geometry": {"type": "Point", "coordinates": [16.78487785, 48.80012211]}, "properties": {"id": "70b6fcdd-f542-44a6-bcb0-abc00103decc", "names": {"primary": "Peugeot AUTO WOZAR Prodej Vozu", "common": null, "rules": null}, "basic_category": "auto_dealer"}}, {"type": "Feature", "geometry": {"type": "Point", "coordinates": [16.78678017, 48.80098122]}, "properties": {"id": "1a32f58a-8722-416c-bc9b-aced0ea77f4f", "names": {"primary": "Automat s Repelenty Predator", "common": null, "rules": null}, "basic_category": "personal_care_and_beauty_store"}}, {"type": "Feature", "geometry": {"type": "Point", "coordinates": [16.78738641, 48.80097935]}, "properties": {"id": "d71d7e16-7fb6-4ce1-863c-3ccbddb2c1e7", "names": {"primary": "Leroy Cosmetics", "common": null, "rules": null}, "basic_category": "personal_care_and_beauty_store"}}, {"type": "Feature", "geometry": {"type": "Point", "coordinates": [16.79034534, 48.7994114]}, "properties": {"id": "2868a461-e609-413f-b710-db50dafa2dbb", "names": {"primary": "B\u00edl\u00e9 domky", "common": null, "rules": null}, "basic_category": "hotel"}}, {"type": "Feature", "geometry": {"type": "Point", "coordinates": [16.79258875, 48.79953222]}, "properties": {"id": "b9621ca3-667a-4080-a9ce-6ecf42e6dc59", "names": {"primary": "Penzion FARMA Lednice", "common": null, "rules": null}, "basic_category": "bed_and_breakfast"}}, {"type": "Feature", "geometry": {"type": "Point", "coordinates": [16.79171209, 48.79995727]}, "properties": {"id": "397fab1b-92cb-44ab-8a7f-9b5ba1470952", "names": {"primary": "Restaurace V\u010del\u00e1k", "common": null, "rules": null}, "basic_category": "restaurant"}}, {"type": "Feature", "geometry": {"type": "Point", "coordinates": [16.79166773, 48.80029439]}, "properties": {"id": "a0e2d770-0eb4-44d2-9153-fd49dd9db954", "names": {"primary": "V\u010dela\u0159sk\u00fd dv\u016fr Lednice", "common": null, "rules": null}, "basic_category": "hotel"}}, {"type": "Feature", "geometry": {"type": "Point", "coordinates": [16.79223096, 48.79979687]}, "properties": {"id": "dbadc522-6c5c-4311-ab4c-017ce551674b", "names": {"primary": "Komin\u00edk na kole", "common": null, "rules": null}, "basic_category": "home_service"}}, {"type": "Feature", "geometry": {"type": "Point", "coordinates": [16.79078783, 48.79998618]}, "properties": {"id": "7ce367f5-d2c4-475d-a3dc-df60ebd5fb0b", "names": {"primary": "Penzion Onyx Lednice", "common": null, "rules": null}, "basic_category": "hotel"}}, {"type": "Feature", "geometry": {"type": "Point", "coordinates": [16.788618, 48.801746]}, "properties": {"id": "515864f6-48e8-45cb-b618-76115f88e538", "names": {"primary": "Vina\u0159stv\u00ed Annovino", "common": null, "rules": null}, "basic_category": "winery"}}, {"type": "Feature", "geometry": {"type": "Point", "coordinates": [16.78844090772745, 48.80143726971024]}, "properties": {"id": "95b3ce7b-5f20-4a0f-aa3c-9fdb0eb9cacd", "names": {"primary": "Vina\u0159stv\u00ed Hrani\u010dn\u00ed Z\u00e1me\u010dek", "common": null, "rules": null}, "basic_category": "winery"}}, {"type": "Feature", "geometry": {"type": "Point", "coordinates": [16.78644099, 48.80161636]}, "properties": {"id": "2dc818b1-f866-44d8-bdcd-129d0f02eca6", "names": {"primary": "Ubytov\u00e1n\u00ed M\u00e1lek Lednice", "common": null, "rules": null}, "basic_category": "lodging"}}, {"type": "Feature", "geometry": {"type": "Point", "coordinates": [16.78482, 48.80208]}, "properties": {"id": "a531639d-e35d-417c-a299-2e2e2aced8d7", "names": {"primary": "STK AUTO Lednice, s.r.o.", "common": null, "rules": null}, "basic_category": "automotive_service"}}, {"type": "Feature", "geometry": {"type": "Point", "coordinates": [16.7791672, 48.80651036]}, "properties": {"id": "f270b7ea-fae0-4c5b-9f2f-c497dc73d11d", "names": {"primary": "AgroPuchala s.r.o.", "common": null, "rules": null}, "basic_category": "food_and_beverage_store"}}, {"type": "Feature", "geometry": {"type": "Point", "coordinates": [16.7767316, 48.8141091]}, "properties": {"id": "0bd038dc-8d0f-4932-98f8-fdf226b458f3", "names": {"primary": "St\u00e1j Z\u00e1meck\u00fd Ml\u00fdn", "common": null, "rules": null}, "basic_category": "lodging"}}, {"type": "Feature", "geometry": {"type": "Point", "coordinates": [16.77631384, 48.81410799]}, "properties": {"id": "ba659508-3e47-4b01-9384-c284dee6a137", "names": {"primary": "Ubytov\u00e1n\u00ed Lednice Nejdek", "common": null, "rules": null}, "basic_category": "hotel"}}, {"type": "Feature", "geometry": {"type": "Point", "coordinates": [16.77608115, 48.81550714]}, "properties": {"id": "a3793547-0856-4684-bf01-8aeb03f30cb6", "names": {"primary": "Ob\u010derstven\u00ed U Jendy", "common": null, "rules": null}, "basic_category": "bar"}}, {"type": "Feature", "geometry": {"type": "Point", "coordinates": [16.81266338, 48.81404795]}, "properties": {"id": "3867ac67-2058-4553-98fa-f09161a089ea", "names": {"primary": "Minaret", "common": null, "rules": null}, "basic_category": "monument"}}, {"type": "Feature", "geometry": {"type": "Point", "coordinates": [16.812996106589093, 48.814176084073054]}, "properties": {"id": "53fbbb9f-8702-49a9-8211-83766a55ea51", "names": {"primary": "Lednicko-valtick\u00fd are\u00e1l", "common": null, "rules": null}, "basic_category": "historic_site"}}, {"type": "Feature", "geometry": {"type": "Point", "coordinates": [16.81312041, 48.81423111]}, "properties": {"id": "afa158ac-af43-4a81-8d48-ab3e230926c6", "names": {"primary": "Ob\u010derstven\u00ed u minaretu", "common": null, "rules": null}, "basic_category": "fast_food_restaurant"}}, {"type": "Feature", "geometry": {"type": "Point", "coordinates": [16.813208029671, 48.81430518705401]}, "properties": {"id": "917d235c-71d4-4585-9446-556e0397c0d5", "names": {"primary": "Lednice, B\u0159eclav", "common": null, "rules": null}, "basic_category": null}}, {"type": "Feature", "geometry": {"type": "Point", "coordinates": [16.815284643544, 48.814234567249]}, "properties": {"id": "6e311d91-2ba1-4a05-97a6-df9122976a88", "names": {"primary": "P\u0159\u00edstavi\u0161t\u011b Minaret", "common": null, "rules": null}, "basic_category": "pier"}}, {"type": "Feature", "geometry": {"type": "Point", "coordinates": [16.79716076, 48.81157381]}, "properties": {"id": "aca41c7c-42d7-4751-91b9-66dc9fbfda21", "names": {"primary": "Pastvisko u Lednice", "common": null, "rules": null}, "basic_category": "national_park"}}, {"type": "Feature", "geometry": {"type": "Point", "coordinates": [16.80830051, 48.80888155]}, "properties": {"id": "56633a35-6705-415c-8f93-91037d61b42f", "names": {"primary": "Akvadukt v Lednici", "common": null, "rules": null}, "basic_category": "arts_and_entertainment"}}, {"type": "Feature", "geometry": {"type": "Point", "coordinates": [16.807778, 48.80359]}, "properties": {"id": "e3c11cf6-0ef3-48df-be51-f06d6dfd4673", "names": {"primary": "Penzion U Vla\u0161tovek", "common": null, "rules": null}, "basic_category": "bed_and_breakfast"}}, {"type": "Feature", "geometry": {"type": "Point", "coordinates": [16.80450197, 48.80467227]}, "properties": {"id": "f820876f-909b-48de-a0be-d09d038830a7", "names": {"primary": "U F\u00e1b\u016f", "common": null, "rules": null}, "basic_category": "restaurant"}}, {"type": "Feature", "geometry": {"type": "Point", "coordinates": [16.804117, 48.80382]}, "properties": {"id": "0784d70c-21c1-4875-9127-647d3f227c67", "names": {"primary": "Vinot\u00e9ka u Tom\u00edka - Gabriela Totkov\u00e1", "common": null, "rules": null}, "basic_category": "food_and_beverage_store"}}, {"type": "Feature", "geometry": {"type": "Point", "coordinates": [16.80350045, 48.80689661]}, "properties": {"id": "babd9a4a-7e32-497b-a1f6-5564ee6018e9", "names": {"primary": "Hippoclub Lednice", "common": null, "rules": null}, "basic_category": "lodging"}}, {"type": "Feature", "geometry": {"type": "Point", "coordinates": [16.804274, 48.80668]}, "properties": {"id": "48532769-08a1-47f7-88ce-53e022b8dc4f", "names": {"primary": "1. Plavebn\u00ed", "common": null, "rules": null}, "basic_category": "hotel"}}, {"type": "Feature", "geometry": {"type": "Point", "coordinates": [16.802926900005293, 48.806996700001896]}, "properties": {"id": "ade54eb0-648c-4acb-abdd-8e5824515ce2", "names": {"primary": "Klub Chovatel\u016f Dostihov\u00fdch Chrt\u016f Lednice", "common": null, "rules": null}, "basic_category": "stadium_arena"}}, {"type": "Feature", "geometry": {"type": "Point", "coordinates": [16.80025688, 48.80660626]}, "properties": {"id": "dc7cf585-2a9b-4113-b910-c1206c763ff3", "names": {"primary": "Dostihov\u00e9 Z\u00e1vodi\u0161t\u011b Chrt\u016f", "common": null, "rules": null}, "basic_category": "sport_or_fitness_facility"}}, {"type": "Feature", "geometry": {"type": "Point", "coordinates": [16.799685, 48.80646]}, "properties": {"id": "1e7e1e0c-e6ef-4be3-ada7-2bf914a26778", "names": {"primary": "Dostihova draha Lednice", "common": null, "rules": null}, "basic_category": "dog_park"}}, {"type": "Feature", "geometry": {"type": "Point", "coordinates": [16.79953261, 48.80351022]}, "properties": {"id": "4f9e06df-c333-4b2d-854d-6c1628fe04b4", "names": {"primary": "Sochy z p\u00edsku", "common": null, "rules": null}, "basic_category": "museum"}}, {"type": "Feature", "geometry": {"type": "Point", "coordinates": [16.800098, 48.805011]}, "properties": {"id": "8609065d-1d77-43b1-85c2-f06f1fd2c370", "names": {"primary": "Seifaos", "common": null, "rules": null}, "basic_category": "arts_and_entertainment"}}, {"type": "Feature", "geometry": {"type": "Point", "coordinates": [16.80246578, 48.80288323]}, "properties": {"id": "cb2d11f7-896e-4666-90c3-ad4c862302a8", "names": {"primary": "Ubytov\u00e1n\u00ed U Jan\u010da Lednice", "common": null, "rules": null}, "basic_category": "bed_and_breakfast"}}, {"type": "Feature", "geometry": {"type": "Point", "coordinates": [16.80138831, 48.80291867]}, "properties": {"id": "9598b024-5b87-4fdc-9e63-997f5def9696", "names": {"primary": "Hotel Galant", "common": null, "rules": null}, "basic_category": "hotel"}}, {"type": "Feature", "geometry": {"type": "Point", "coordinates": [16.801481, 48.8029230970993]}, "properties": {"id": "9b1c45e0-498f-41ca-b718-d681f17fbc69", "names": {"primary": "Grand Moravia Restaurant", "common": null, "rules": null}, "basic_category": "restaurant"}}, {"type": "Feature", "geometry": {"type": "Point", "coordinates": [16.80113156, 48.80280208]}, "properties": {"id": "5d15b0ae-760e-4fc0-984a-b5df4c4ce8aa", "names": {"primary": "Lod\u011b a kolob\u011b\u017eky Dyje", "common": null, "rules": null}, "basic_category": "recreational_equipment_rental"}}, {"type": "Feature", "geometry": {"type": "Point", "coordinates": [16.801968036744, 48.80249185716]}, "properties": {"id": "554c10fe-e4a1-49d9-ab84-7b14e4afada0", "names": {"primary": "Pergola Pod platanem", "common": null, "rules": null}, "basic_category": "restaurant"}}, {"type": "Feature", "geometry": {"type": "Point", "coordinates": [16.80280715, 48.80230877]}, "properties": {"id": "a22e0c8f-95f3-4742-a126-2147a61e3aa5", "names": {"primary": "Ubytov\u00e1n\u00ed u parku", "common": null, "rules": null}, "basic_category": "lodging"}}, {"type": "Feature", "geometry": {"type": "Point", "coordinates": [16.802203, 48.80162717]}, "properties": {"id": "f8dd4194-b813-4fb1-8355-16d63146fc63", "names": {"primary": "Vinn\u00fd \u0161enk", "common": null, "rules": null}, "basic_category": "bar"}}, {"type": "Feature", "geometry": {"type": "Point", "coordinates": [16.80224167, 48.80164267]}, "properties": {"id": "e1336f70-5d6d-4fb6-8ee4-19cd91538b9b", "names": {"primary": "U Luk\u00e1\u0161k\u016f", "common": null, "rules": null}, "basic_category": "bar"}}, {"type": "Feature", "geometry": {"type": "Point", "coordinates": [16.80258376, 48.80104687]}, "properties": {"id": "680ade12-d71d-4e7d-bf5a-95d01eb76d0b", "names": {"primary": "Kav\u00e1rna & vin\u00e1rna Knoll", "common": null, "rules": null}, "basic_category": "coffee_shop"}}, {"type": "Feature", "geometry": {"type": "Point", "coordinates": [16.80194198, 48.80137324]}, "properties": {"id": "fc19dd7f-4b34-4a4d-8934-754d805546b4", "names": {"primary": "Caf\u00e9 Restaurant ONYX", "common": null, "rules": null}, "basic_category": "cafe"}}, {"type": "Feature", "geometry": {"type": "Point", "coordinates": [16.80214, 48.80156811]}, "properties": {"id": "91b96381-142b-4826-9c90-4baba3c97bfe", "names": {"primary": "Bistro", "common": null, "rules": null}, "basic_category": "fast_food_restaurant"}}, {"type": "Feature", "geometry": {"type": "Point", "coordinates": [16.80197506, 48.80146893]}, "properties": {"id": "afa03d07-f787-45ee-88c4-251c2918db6b", "names": {"primary": "Tourist Information Center", "common": null, "rules": null}, "basic_category": "travel_service"}}, {"type": "Feature", "geometry": {"type": "Point", "coordinates": [16.80184818, 48.80126652]}, "properties": {"id": "7a0cfe16-183e-41b1-bfaa-489e4f8be03b", "names": {"primary": "Pension Jordan", "common": null, "rules": null}, "basic_category": "hotel"}}, {"type": "Feature", "geometry": {"type": "Point", "coordinates": [16.80023932, 48.80107627]}, "properties": {"id": "6b7cf694-f8af-4172-ad62-6f9f8aa533fe", "names": {"primary": "Vila Lednice", "common": null, "rules": null}, "basic_category": "hotel"}}, {"type": "Feature", "geometry": {"type": "Point", "coordinates": [16.79745, 48.80007]}, "properties": {"id": "8f464406-edc9-41e8-a17c-340fd901a62c", "names": {"primary": "Jumpingdogs z.s. Lednice", "common": null, "rules": null}, "basic_category": "social_or_community_service"}}, {"type": "Feature", "geometry": {"type": "Point", "coordinates": [16.79589325, 48.79979753]}, "properties": {"id": "e29edf5c-747e-4966-b8c4-b3da0fc5646f", "names": {"primary": "Ubytov\u00e1n\u00ed Led\u0148\u00e1\u010dek", "common": null, "rules": null}, "basic_category": "hotel"}}, {"type": "Feature", "geometry": {"type": "Point", "coordinates": [16.79606023, 48.79934765]}, "properties": {"id": "419fb85b-3c8f-437c-9934-a53e7d4afbc9", "names": {"primary": "Ubytov\u00e1n\u00ed Sylv\u00e1n", "common": null, "rules": null}, "basic_category": "bed_and_breakfast"}}, {"type": "Feature", "geometry": {"type": "Point", "coordinates": [16.79423678, 48.7994002]}, "properties": {"id": "81364654-a771-4c21-967b-0721e91029f0", "names": {"primary": "Penzion Astoria Lednice", "common": null, "rules": null}, "basic_category": "hotel"}}, {"type": "Feature", "geometry": {"type": "Point", "coordinates": [16.79835386, 48.79953272]}, "properties": {"id": "73306c3b-5227-41ab-ba37-19e59bc7a079", "names": {"primary": "Penzion Pohoda Lednice", "common": null, "rules": null}, "basic_category": "bed_and_breakfast"}}, {"type": "Feature", "geometry": {"type": "Point", "coordinates": [16.79820426, 48.79952511]}, "properties": {"id": "3597bda0-e9d6-43c4-a9a3-3281a941a550", "names": {"primary": "Bla\u017eej Put\u00edk", "common": null, "rules": null}, "basic_category": "home_service"}}, {"type": "Feature", "geometry": {"type": "Point", "coordinates": [16.79992755, 48.79889257]}, "properties": {"id": "64e0b7fc-fcfc-491b-9077-eed9b3293e54", "names": {"primary": "Apartm\u00e1ny Valet", "common": null, "rules": null}, "basic_category": "hotel"}}, {"type": "Feature", "geometry": {"type": "Point", "coordinates": [16.7997707, 48.7989063]}, "properties": {"id": "7737387d-f986-4587-9872-50d0bf3b029f", "names": {"primary": "COLORTOP B\u0159eclav", "common": null, "rules": null}, "basic_category": "hardware_home_and_garden_store"}}, {"type": "Feature", "geometry": {"type": "Point", "coordinates": [16.800505, 48.8000788]}, "properties": {"id": "00b26061-51f6-4582-8790-786936dcb37e", "names": {"primary": "Lednick\u00fd skl\u00edpek", "common": null, "rules": null}, "basic_category": "winery"}}, {"type": "Feature", "geometry": {"type": "Point", "coordinates": [16.80158074, 48.80075391]}, "properties": {"id": "eff2e7f8-2f21-43ba-8d52-21ea57bc7916", "names": {"primary": "Restaurant U Tlust\u00fdch", "common": null, "rules": null}, "basic_category": "restaurant"}}, {"type": "Feature", "geometry": {"type": "Point", "coordinates": [16.8018841, 48.80080823]}, "properties": {"id": "29781bdb-5726-4650-8c60-232cf62bed95", "names": {"primary": "Vina\u0159sk\u00e1 vesni\u010dka U \u010capk\u016f", "common": null, "rules": null}, "basic_category": "winery"}}, {"type": "Feature", "geometry": {"type": "Point", "coordinates": [16.80189117, 48.80070196]}, "properties": {"id": "01473ee5-06ff-44e8-a1e4-8d5104086b4f", "names": {"primary": "Rodinn\u00e9 vina\u0159stv\u00ed Myna\u0159\u00edk", "common": null, "rules": null}, "basic_category": "winery"}}, {"type": "Feature", "geometry": {"type": "Point", "coordinates": [16.80168042, 48.80054453]}, "properties": {"id": "c6fb054d-1c41-4883-b6a8-f9afd47f17ca", "names": {"primary": "Kvetinarstvi Lednice", "common": null, "rules": null}, "basic_category": "flowers_and_gifts_store"}}, {"type": "Feature", "geometry": {"type": "Point", "coordinates": [16.80141941, 48.80059994]}, "properties": {"id": "6ed82b9f-0610-4170-8201-912ea1f3ae82", "names": {"primary": "U R\u016f\u017eenky", "common": null, "rules": null}, "basic_category": "flowers_and_gifts_store"}}, {"type": "Feature", "geometry": {"type": "Point", "coordinates": [16.80172275, 48.80039286]}, "properties": {"id": "47bb5fdb-3def-479d-91b8-0099276830a6", "names": {"primary": "Muzeum hra\u010dek Lednice", "common": null, "rules": null}, "basic_category": "museum"}}, {"type": "Feature", "geometry": {"type": "Point", "coordinates": [16.80301489, 48.80097544]}, "properties": {"id": "38e25739-4a45-4e70-a358-eb51d319a382", "names": {"primary": "Liechtenstein houses", "common": null, "rules": null}, "basic_category": "lodging"}}, {"type": "Feature", "geometry": {"type": "Point", "coordinates": [16.80292, 48.80023]}, "properties": {"id": "d009dbb8-926c-45b3-bfb2-f32326360048", "names": {"primary": "Mas\u00e1\u017ee, plynut\u00ed, klid a m\u00edr", "common": null, "rules": null}, "basic_category": "wellness_service"}}, {"type": "Feature", "geometry": {"type": "Point", "coordinates": [16.80292, 48.80023]}, "properties": {"id": "1b6b7a01-a917-4877-afa1-c41789d6d38a", "names": {"primary": "Ordinace MUDr Olivy, Lednice", "common": null, "rules": null}, "basic_category": "outpatient_care_facility"}}, {"type": "Feature", "geometry": {"type": "Point", "coordinates": [16.80292, 48.80023]}, "properties": {"id": "d0a3f8dc-cb93-405b-ad5f-9699aa604430", "names": {"primary": "Kosmeti\u010dka & viz\u00e1\u017eistka Michaela Val\u00e1\u0161kov\u00e1", "common": null, "rules": null}, "basic_category": "personal_or_beauty_service"}}, {"type": "Feature", "geometry": {"type": "Point", "coordinates": [16.8029225, 48.80023]}, "properties": {"id": "0b87e42d-f9f9-462a-adce-dc8f5a4c5feb", "names": {"primary": "Dr. Max L\u00e9k\u00e1rna", "common": null, "rules": null}, "basic_category": "pharmacy_and_drug_store"}}, {"type": "Feature", "geometry": {"type": "Point", "coordinates": [16.80302349940567, 48.80016709669941]}, "properties": {"id": "2231e47b-734c-4bf7-8b5e-c2137c16cc6d", "names": {"primary": "Pilulka L\u00e9k\u00e1rna", "common": null, "rules": null}, "basic_category": "pharmacy_and_drug_store"}}, {"type": "Feature", "geometry": {"type": "Point", "coordinates": [16.80238, 48.80014]}, "properties": {"id": "3c86a09c-ec2d-4bb6-a5c1-0e13eed37302", "names": {"primary": "apartm\u00e1ny \u010cern\u00fd jezdec", "common": null, "rules": null}, "basic_category": "lodging"}}, {"type": "Feature", "geometry": {"type": "Point", "coordinates": [16.80270569, 48.79996806]}, "properties": {"id": "5200f53e-ee72-418c-88f5-815bee2499cb", "names": {"primary": "Na Knihovn\u011b", "common": null, "rules": null}, "basic_category": "restaurant"}}, {"type": "Feature", "geometry": {"type": "Point", "coordinates": [16.802793, 48.799985]}, "properties": {"id": "55ed2cd1-d48b-46c2-96ae-60c847f331b8", "names": {"primary": "MINI Market slunce Lednice", "common": null, "rules": null}, "basic_category": "food_and_beverage_store"}}, {"type": "Feature", "geometry": {"type": "Point", "coordinates": [16.80288383, 48.79983278]}, "properties": {"id": "dff9e003-a7ef-4859-9b52-82693604eb57", "names": {"primary": "Apartm\u00e1n Rozmar\u00fdn", "common": null, "rules": null}, "basic_category": "professional_service"}}, {"type": "Feature", "geometry": {"type": "Point", "coordinates": [16.8029289, 48.7997781]}, "properties": {"id": "b64deb14-439e-4206-8fc4-f1c4a223146d", "names": {"primary": "POTRAVINY", "common": null, "rules": []}, "basic_category": "convenience_store"}}, {"type": "Feature", "geometry": {"type": "Point", "coordinates": [16.80266937, 48.7993455]}, "properties": {"id": "9886ed20-6565-490d-872d-03923203f14e", "names": {"primary": "Pra\u017e\u00edrna a kav\u00e1rna coffeesquare", "common": null, "rules": null}, "basic_category": "coffee_shop"}}, {"type": "Feature", "geometry": {"type": "Point", "coordinates": [16.801416, 48.799517]}, "properties": {"id": "50dfba62-69cf-4d6b-a5ad-71fc479ae9dd", "names": {"primary": "BioReneSance.cz", "common": null, "rules": null}, "basic_category": "food_and_beverage_store"}}, {"type": "Feature", "geometry": {"type": "Point", "coordinates": [16.80073757, 48.79860133]}, "properties": {"id": "0a3092eb-1870-4b70-b003-5d2784403203", "names": {"primary": "Vina\u0159stv\u00ed Hroz\u00ednek", "common": null, "rules": null}, "basic_category": "winery"}}, {"type": "Feature", "geometry": {"type": "Point", "coordinates": [16.80073932, 48.7985699]}, "properties": {"id": "877dd4c5-748d-4c84-9cb2-e3c6715059cc", "names": {"primary": "Sklep Pod Vrbou", "common": null, "rules": null}, "basic_category": "winery"}}, {"type": "Feature", "geometry": {"type": "Point", "coordinates": [16.80166164, 48.7987933]}, "properties": {"id": "75d995e6-fa77-4ba9-8ee7-2554d9f562a3", "names": {"primary": "Flames Grill Pub & Restaurant Lednice", "common": null, "rules": null}, "basic_category": "restaurant"}}, {"type": "Feature", "geometry": {"type": "Point", "coordinates": [16.80168283, 48.79875955]}, "properties": {"id": "b1ce927f-af8e-4120-9b37-913573a94925", "names": {"primary": "Relax Hotel \u0160tork", "common": null, "rules": null}, "basic_category": "hotel"}}, {"type": "Feature", "geometry": {"type": "Point", "coordinates": [16.80327195, 48.79924338]}, "properties": {"id": "85859d18-adbb-483d-be6f-44d41729d3a1", "names": {"primary": "P\u016fj\u010dovna kol Lednice", "common": null, "rules": null}, "basic_category": "recreational_equipment_rental"}}, {"type": "Feature", "geometry": {"type": "Point", "coordinates": [16.80365037, 48.79949184]}, "properties": {"id": "c2a85859-7310-40bf-8546-0e9247e90e48", "names": {"primary": "Pivovar Lednice", "common": null, "rules": null}, "basic_category": "bar"}}, {"type": "Feature", "geometry": {"type": "Point", "coordinates": [16.80367846, 48.79968618]}, "properties": {"id": "dc073811-296c-4c93-8e74-90e9318b71ff", "names": {"primary": "Resort Lednice", "common": null, "rules": null}, "basic_category": "hotel"}}, {"type": "Feature", "geometry": {"type": "Point", "coordinates": [16.805302471559667, 48.800958059516624]}, "properties": {"id": "b183399b-5d66-4e52-b734-6edd3eb8a25c", "names": {"primary": "Multifunk\u010dn\u00ed centrum - Z\u00e1mek Lednice", "common": null, "rules": null}, "basic_category": "campus_building"}}, {"type": "Feature", "geometry": {"type": "Point", "coordinates": [16.80449326, 48.80052721]}, "properties": {"id": "f8ccba83-ed35-41d3-a9cd-1c7710d9a994", "names": {"primary": "Kv\u011btiny od Kejtliny", "common": null, "rules": null}, "basic_category": "flowers_and_gifts_store"}}, {"type": "Feature", "geometry": {"type": "Point", "coordinates": [16.80432795, 48.8004113]}, "properties": {"id": "9cff0b1f-f34d-4344-9403-dff7d841e2ef", "names": {"primary": "Z\u00e1meck\u00e1 restaurace", "common": null, "rules": null}, "basic_category": "restaurant"}}, {"type": "Feature", "geometry": {"type": "Point", "coordinates": [16.80458, 48.80044]}, "properties": {"id": "fb6ccfa5-6ff5-43f1-9939-69dab1e4ef22", "names": {"primary": "Sklen\u00edk", "common": null, "rules": null}, "basic_category": "historic_site"}}, {"type": "Feature", "geometry": {"type": "Point", "coordinates": [16.80460951, 48.80034704]}, "properties": {"id": "77c0353a-e2ed-4f02-bd0a-ee35472d9ee8", "names": {"primary": "Lednice D\u00e1vn\u00e1", "common": null, "rules": null}, "basic_category": "museum"}}, {"type": "Feature", "geometry": {"type": "Point", "coordinates": [16.80465, 48.80032]}, "properties": {"id": "53ec6c6b-bb56-4c4f-a22b-cd3505991487", "names": {"primary": "LVHF", "common": null, "rules": null}, "basic_category": "music_venue"}}, {"type": "Feature", "geometry": {"type": "Point", "coordinates": [16.804106165855, 48.800283995703]}, "properties": {"id": "11471002-e2ad-4751-8530-7faad044204f", "names": {"primary": "Infocentrum", "common": null, "rules": null}, "basic_category": "travel_service"}}, {"type": "Feature", "geometry": {"type": "Point", "coordinates": [16.80381495, 48.80026541]}, "properties": {"id": "cb4ea5bd-22a8-4bd7-8597-e81b229b3407", "names": {"primary": "Obec Lednice", "common": null, "rules": null}, "basic_category": "government_office"}}, {"type": "Feature", "geometry": {"type": "Point", "coordinates": [16.8038633, 48.7998244]}, "properties": {"id": "294fc28a-a7e8-456a-bbdc-70f06e8eb963", "names": {"primary": "\u010cesk\u00e1 po\u0161ta", "common": null, "rules": null}, "basic_category": "shipping_or_delivery_service"}}, {"type": "Feature", "geometry": {"type": "Point", "coordinates": [16.803864, 48.799824]}, "properties": {"id": "ae9364d5-ba4f-466b-ab21-c2254d50d836", "names": {"primary": "Lednice na Morav\u011b", "common": null, "rules": []}, "basic_category": "shipping_or_delivery_service"}}, {"type": "Feature", "geometry": {"type": "Point", "coordinates": [16.80348, 48.79997]}, "properties": {"id": "8ad87f54-a385-4f02-b258-6028ca60bc5d", "names": {"primary": "Slov\u00e1ck\u00fd Dvorek", "common": null, "rules": null}, "basic_category": "lodging"}}, {"type": "Feature", "geometry": {"type": "Point", "coordinates": [16.80347, 48.79997]}, "properties": {"id": "0e17b242-3871-44dd-ba2e-dc4f31b4461b", "names": {"primary": "Z\u00e1mek Lednice", "common": null, "rules": null}, "basic_category": null}}, {"type": "Feature", "geometry": {"type": "Point", "coordinates": [16.80347, 48.79997]}, "properties": {"id": "a5055a77-7c18-49a3-8223-1809ea7d635a", "names": {"primary": "Ludy's Wine", "common": null, "rules": null}, "basic_category": null}}, {"type": "Feature", "geometry": {"type": "Point", "coordinates": [16.803328692913055, 48.79977045782619]}, "properties": {"id": "be125549-b4a2-4051-aba2-50b85bf9c3c8", "names": {"primary": "COOP N\u00e1kupn\u00ed st\u0159edisko", "common": null, "rules": null}, "basic_category": "food_and_beverage_store"}}, {"type": "Feature", "geometry": {"type": "Point", "coordinates": [16.80351637, 48.80015327]}, "properties": {"id": "feef7842-ec79-4153-a998-f745f16d5de7", "names": {"primary": "Stravovna", "common": null, "rules": null}, "basic_category": "restaurant"}}, {"type": "Feature", "geometry": {"type": "Point", "coordinates": [16.80354379, 48.80022808]}, "properties": {"id": "b9a83507-e23d-49ba-92dd-4d742b4ec65d", "names": {"primary": "KJU:B Music Club", "common": null, "rules": null}, "basic_category": "dance_club"}}, {"type": "Feature", "geometry": {"type": "Point", "coordinates": [16.80345770021053, 48.800308975057284]}, "properties": {"id": "98c3e6c6-f4e7-4a55-81e0-f06c0ed00239", "names": {"primary": "Z\u00e1meck\u00e9 n\u00e1m\u011bst\u00ed", "common": null, "rules": null}, "basic_category": "public_plaza"}}, {"type": "Feature", "geometry": {"type": "Point", "coordinates": [16.80319644, 48.80040193]}, "properties": {"id": "e621633e-0fae-4b90-865c-bbff5a560f7a", "names": {"primary": "VD Zahradn\u00ed bistro - pas\u00e1\u017e Mario - Lednice", "common": null, "rules": null}, "basic_category": "restaurant"}}, {"type": "Feature", "geometry": {"type": "Point", "coordinates": [16.803787, 48.80037122]}, "properties": {"id": "b537f666-731a-4cbb-adcd-728ee8b61c99", "names": {"primary": "Biosfericka rezervace Dolni Morava", "common": null, "rules": null}, "basic_category": "social_or_community_service"}}, {"type": "Feature", "geometry": {"type": "Point", "coordinates": [16.80394613, 48.80049111]}, "properties": {"id": "75f508c2-e8a5-491a-a194-696ea44e765b", "names": {"primary": "Vinot\u00e9ka a radni\u010dn\u00ed sklep Moravsk\u00fd sommelier", "common": null, "rules": null}, "basic_category": "winery"}}, {"type": "Feature", "geometry": {"type": "Point", "coordinates": [16.80419848, 48.80056663]}, "properties": {"id": "d382e17a-269d-42db-a40f-500b00316ca7", "names": {"primary": "Pedro's Foodtruck", "common": null, "rules": null}, "basic_category": "fast_food_restaurant"}}, {"type": "Feature", "geometry": {"type": "Point", "coordinates": [16.8037475, 48.8006866]}, "properties": {"id": "2fb5de49-3922-4258-82eb-692427cce44f", "names": {"primary": "Hotel Mario", "common": null, "rules": null}, "basic_category": "hotel"}}, {"type": "Feature", "geometry": {"type": "Point", "coordinates": [16.803713035782035, 48.800771440009655]}, "properties": {"id": "a9b7913d-8ab7-4379-b76d-70e8826e75f8", "names": {"primary": "Z\u00e1meck\u00fd hotel Lednice", "common": null, "rules": null}, "basic_category": "hotel"}}, {"type": "Feature", "geometry": {"type": "Point", "coordinates": [16.8040552, 48.80078988]}, "properties": {"id": "da45577f-e640-4eb4-a2e9-6dfbcf29a8dc", "names": {"primary": "Cukr\u00e1rna", "common": null, "rules": null}, "basic_category": "casual_eatery"}}, {"type": "Feature", "geometry": {"type": "Point", "coordinates": [16.804139727218473, 48.80084899491894]}, "properties": {"id": "80ea13ec-4104-49be-8e82-7fdd17f37e9e", "names": {"primary": "St\u00e1tn\u00ed z\u00e1mek Lednice", "common": null, "rules": null}, "basic_category": "castle"}}, {"type": "Feature", "geometry": {"type": "Point", "coordinates": [16.80346472, 48.80071676]}, "properties": {"id": "f9f92163-33f0-4f75-8e6d-e646dfbf8c30", "names": {"primary": "Princess Hotel", "common": null, "rules": null}, "basic_category": "hotel"}}, {"type": "Feature", "geometry": {"type": "Point", "coordinates": [16.80332426, 48.80080637]}, "properties": {"id": "efdbe491-c307-469b-bc66-431ce7c62974", "names": {"primary": "Vinot\u00e9ka Pereg Winery", "common": null, "rules": null}, "basic_category": "winery"}}, {"type": "Feature", "geometry": {"type": "Point", "coordinates": [16.80324308, 48.80076822]}, "properties": {"id": "a6d87e29-8699-4a73-9e62-23c680a44f10", "names": {"primary": "Apartm\u00e1n Lednice", "common": null, "rules": null}, "basic_category": "hotel"}}, {"type": "Feature", "geometry": {"type": "Point", "coordinates": [16.8032395, 48.80090732]}, "properties": {"id": "c8ef0d84-9954-4c90-b96c-a393c25e9826", "names": {"primary": "Penzion U Z\u00e1mku", "common": null, "rules": null}, "basic_category": "bed_and_breakfast"}}, {"type": "Feature", "geometry": {"type": "Point", "coordinates": [16.80334181, 48.80090785]}, "properties": {"id": "a327ae71-46d0-4b7c-b106-a32235661034", "names": {"primary": "Burgers' Club", "common": null, "rules": null}, "basic_category": "restaurant"}}, {"type": "Feature", "geometry": {"type": "Point", "coordinates": [16.80532697, 48.80125158]}, "properties": {"id": "50cf9042-7a7b-41d2-9afc-45036b561c1f", "names": {"primary": "Kostel sv. Jakuba Star\u0161\u00edho", "common": null, "rules": null}, "basic_category": "christian_place_of_worship"}}, {"type": "Feature", "geometry": {"type": "Point", "coordinates": [16.80417516, 48.80218654]}, "properties": {"id": "baab74e5-3606-4bc9-8d38-5c725545f2ad", "names": {"primary": "Z\u00e1meck\u00e9 j\u00edzd\u00e1rny", "common": null, "rules": null}, "basic_category": "historic_site"}}, {"type": "Feature", "geometry": {"type": "Point", "coordinates": [16.80324978, 48.80225996]}, "properties": {"id": "8a9de886-1e47-4c14-80cd-6349d6d6cfb2", "names": {"primary": "Caf\u00e9 Irma", "common": null, "rules": null}, "basic_category": "coffee_shop"}}, {"type": "Feature", "geometry": {"type": "Point", "coordinates": [16.80386287, 48.80267265]}, "properties": {"id": "a4e7be72-a9e6-4447-9da8-9e960b99111e", "names": {"primary": "\u00danikov\u00e1 hra Lednice", "common": null, "rules": null}, "basic_category": "gaming_venue"}}, {"type": "Feature", "geometry": {"type": "Point", "coordinates": [16.803971, 48.802628]}, "properties": {"id": "e9760cc5-6e32-4662-841c-69fd6b209fb5", "names": {"primary": "Klatba zedn\u00e1\u0159ova", "common": null, "rules": null}, "basic_category": "gaming_venue"}}, {"type": "Feature", "geometry": {"type": "Point", "coordinates": [16.80359021, 48.80269705]}, "properties": {"id": "864bcecf-0e37-41d4-82cb-d02bb2a5830e", "names": {"primary": "Apartm\u00e1ny u Polansk\u00fdch", "common": null, "rules": null}, "basic_category": "private_lodging"}}, {"type": "Feature", "geometry": {"type": "Point", "coordinates": [16.805724463077, 48.80187186243]}, "properties": {"id": "102156f9-f2bb-4e0b-a626-a14f0ffe35c4", "names": {"primary": "Kultura pod hv\u011bzdami", "common": null, "rules": null}, "basic_category": "music_venue"}}, {"type": "Feature", "geometry": {"type": "Point", "coordinates": [16.80544338, 48.80177224]}, "properties": {"id": "cd9ca269-ab9d-4947-b078-78ebc708952b", "names": {"primary": "Caf\u00e9 Chateau", "common": null, "rules": null}, "basic_category": "coffee_shop"}}, {"type": "Feature", "geometry": {"type": "Point", "coordinates": [16.805434226989746, 48.80159194492295]}, "properties": {"id": "ee8eb0e8-b047-4435-bd16-4b469754a31c", "names": {"primary": "Z\u00e1mek Lednice", "common": null, "rules": null}, "basic_category": "historic_site"}}, {"type": "Feature", "geometry": {"type": "Point", "coordinates": [16.8060699, 48.80101]}, "properties": {"id": "13d9bc03-5f25-4d88-8475-3f7b7469117f", "names": {"primary": "Kav\u00e1rna z\u00e1mek Lednice DavPet, sro", "common": null, "rules": null}, "basic_category": "cafe"}}, {"type": "Feature", "geometry": {"type": "Point", "coordinates": [16.80672608, 48.80148091]}, "properties": {"id": "e39f8859-d0bc-4128-b77d-20898951dd12", "names": {"primary": "Z\u00e1meck\u00fd sklen\u00edk", "common": null, "rules": null}, "basic_category": "park"}}, {"type": "Feature", "geometry": {"type": "Point", "coordinates": [16.80787829265578, 48.80308526336917]}, "properties": {"id": "1d0dfe8e-e05b-4340-b23a-10ea672a96ec", "names": {"primary": "Maurska Vodarna", "common": null, "rules": null}, "basic_category": "historic_site"}}, {"type": "Feature", "geometry": {"type": "Point", "coordinates": [16.80784622, 48.80307548]}, "properties": {"id": "6d83d975-0c7b-43f9-8565-5eb54076352e", "names": {"primary": "J\u00edzdy povozem", "common": null, "rules": null}, "basic_category": "rental_service"}}, {"type": "Feature", "geometry": {"type": "Point", "coordinates": [16.808062791824, 48.803429265473]}, "properties": {"id": "9038b622-2d35-4096-98a4-24619ba41952", "names": {"primary": "Plavby Lednice - 1. Plavebn\u00ed", "common": null, "rules": null}, "basic_category": "travel_and_transportation"}}, {"type": "Feature", "geometry": {"type": "Point", "coordinates": [16.808234722736, 48.803417094383]}, "properties": {"id": "3fdb40da-294f-453e-8c2e-6d93d24f971a", "names": {"primary": "P\u0159\u00edstavi\u0161t\u011b Z\u00e1mek", "common": null, "rules": null}, "basic_category": "pier"}}, {"type": "Feature", "geometry": {"type": "Point", "coordinates": [16.81112126, 48.79879805]}, "properties": {"id": "237baa4b-4f18-400b-a66e-a3e6af5f5db4", "names": {"primary": "U Z\u00e1meck\u00e9ho zahradnictv\u00ed", "common": null, "rules": null}, "basic_category": "hotel"}}, {"type": "Feature", "geometry": {"type": "Point", "coordinates": [16.812956, 48.79996]}, "properties": {"id": "dc8885ee-16ac-4d93-90d4-7ca04501e1d1", "names": {"primary": "B\u011bhej Lesy Lednice", "common": null, "rules": null}, "basic_category": "nature_reserve"}}, {"type": "Feature", "geometry": {"type": "Point", "coordinates": [16.81378255, 48.80078646]}, "properties": {"id": "6484be30-c464-419c-85ab-439a1c3e07aa", "names": {"primary": "Zayferus - dravci", "common": null, "rules": null}, "basic_category": "zoo"}}, {"type": "Feature", "geometry": {"type": "Point", "coordinates": [16.83041452, 48.80065255]}, "properties": {"id": "6668728a-d0e4-41fa-a597-4c5734baf099", "names": {"primary": "Loveck\u00fd z\u00e1me\u010dek", "common": null, "rules": null}, "basic_category": "historic_site"}}, {"type": "Feature", "geometry": {"type": "Point", "coordinates": [16.83344288, 48.80513039]}, "properties": {"id": "2b098621-9b28-4259-b982-01b5bf58265f", "names": {"primary": "Parkovi\u0161t\u011b Jan\u016fv hrad", "common": null, "rules": null}, "basic_category": "parking"}}, {"type": "Feature", "geometry": {"type": "Point", "coordinates": [16.832079595992482, 48.804378525469794]}, "properties": {"id": "776801c8-e363-419a-a708-2c04d0c2d203", "names": {"primary": "Jan\u016fv hrad", "common": null, "rules": null}, "basic_category": "travel_service"}}]}